MONITOR-2 (RS39S)       
1 57184U 23091U   26131.48200221  .00002807  00000+0  13907-3 0  9991
2 57184  97.5098 190.0070 0009986 235.2833 124.7461 15.18564472158383
SVYATOBOR 1 (RS60S)     
1 57187U 23091X   26131.47622797  .00005238  00000+0  20657-3 0  9990
2 57187  97.5111 195.1049 0008800 212.6596 147.4099 15.25980147158718
HORS 1                  
1 57188U 23091Y   26131.46417167  .00005626  00000+0  22101-3 0  9990
2 57188  97.5091 194.8602 0008270 212.0896 147.9840 15.26075081158717
VIZARD-METEO (RS38S)    
1 57189U 23091Z   26131.52096471  .00010042  00000+0  29930-3 0  9994
2 57189  97.5109 200.3034 0007525 189.8888 170.2208 15.34850697159063
SITRO-AIS 6 (CHIRKIN)   
1 57192U 23091AC  26131.51390100  .00003495  00000+0  14182-3 0  9990
2 57192  97.5090 194.3946 0010765 229.0189 131.0118 15.25239737158690
SITRO-AIS 8 (ANOKHIN)   
1 57193U 23091AD  26131.50043035  .00008136  00000+0  27274-3 0  9995
2 57193  97.5077 196.5165 0009921 220.4996 139.5507 15.31136304158830
SITRO-AIS 7 (FARTUSHNIY)
1 57194U 23091AE  26131.50976464  .00003240  00000+0  13288-3 0  9998
2 57194  97.5088 194.2338 0010582 230.3142 129.7163 15.24945808158689
AVION KALUGA 650        
1 57195U 23091AF  26131.49740185  .00003429  00000+0  16253-3 0  9990
2 57195  97.5114 191.2289 0009205 232.3534 127.6866 15.19956837158459
HORS 2                  
1 57196U 23091AG  26131.50708362  .00007818  00000+0  26382-3 0  9994
2 57196  97.5107 198.0613 0007923 202.6357 157.4536 15.30950119158912
A-SEANSAT-PG1           
1 57197U 23091AH  26131.47047937  .00011600  00000+0  33634-3 0  9997
2 57197  97.5097 200.3038 0007304 198.3400 161.7581 15.35677496159077
SITRO-AIS 10 (BURDAEV)  
1 57199U 23091AK  26131.48615926  .00012240  00000+0  33774-3 0  9995
2 57199  97.5098 201.1903 0006892 191.1507 168.9586 15.37218321159120
SITRO-AIS 9 (SHCHUKIN)  
1 57201U 23091AM  26131.50142307  .00011374  00000+0  31862-3 0  9993
2 57201  97.5095 200.9634 0007111 191.8905 168.2172 15.36763905159118
UTMN 2 (RS27S)          
1 57203U 23091AP  26131.47323851  .00007978  00000+0  26760-3 0  9992
2 57203  97.5107 198.2094 0007917 198.2016 161.8942 15.31140266158927
SITRO-AIS 12 (SMIRENNIY)
1 57204U 23091AQ  26131.43378985  .00011907  00000+0  33042-3 0  9995
2 57204  97.5107 201.3388 0006915 185.9629 174.1534 15.37047107159123
SITRO-AIS 11 (SHEFFER)  
1 57208U 23091AU  26131.52202532  .00011747  00000+0  32193-3 0  9991
2 57208  97.5105 201.6534 0006839 185.3537 174.7635 15.37440266159152
H2SAT (HEINRICH HERTZ)  
1 57213U 23093A   26131.32449095  .00000013  00000+0  00000+0 0  9996
2 57213   0.0115 233.8586 0001121 247.1904 225.5966  1.00275153 10543
KUZGTU 1 (RS47S)        
1 57217U 23091AV  26131.52576426  .00007341  00000+0  26293-3 0  9996
2 57217  97.5086 195.6540 0010314 218.4971 141.5534 15.29011188158777
QIANKUN-1               
1 57422U 23103B   26131.50963911  .00065874  35802-5  78266-4 0  9992
2 57422  96.1639 178.8864 0028225 121.1595 239.2464 16.07698642161402
FENGYUN 3F              
1 57490U 23111A   26131.47310913  .00000005  00000+0  22699-4 0  9990
2 57490  98.6863 202.1630 0001196 115.4907 244.6393 14.19932455143658
HJ-2F                   
1 57519U 23116A   26131.50185461  .00004874  00000+0  21755-3 0  9998
2 57519  97.3861 137.3749 0009402 158.6853 201.4777 15.21796970153170
XRISM                   
1 57800U 23137A   26131.49338832  .00002682  00000+0  14622-3 0  9994
2 57800  31.0019 237.2293 0007668 313.5979  46.4023 15.12154558147309
METEOR-M2 4             
1 59051U 24039A   26131.53518715 -.00000001  00000+0  19408-4 0  9993
2 59051  98.6990  91.2991 0005926 278.1532  81.8973 14.22425687114052
GRBBETA                 
1 60237U 24128C   26131.31542566  .00002478  00000+0  17862-3 0  9997
2 60237  61.9910 345.6011 0045463 127.0344 233.4921 15.06332592100718
TRANSPORTER-11 OBJECT A 
1 60468U 24149A   26131.45970914  .00005362  00000+0  17440-3 0  9990
2 60468  97.3731 211.5213 0003169  22.4180 337.7200 15.32308007 96430
WARATAH SEED-1          
1 60469U 24149B   26131.48567888  .00008371  00000+0  24872-3 0  9996
2 60469  97.3688 212.0536 0001921  45.8457 314.2944 15.35019048 96483
PHISAT 2                
1 60470U 24149C   26131.17924084  .00004427  00000+0  15259-3 0  9996
2 60470  97.3757 210.6172 0002401  58.6263 301.5213 15.30523922 96331
LEMUR-2-TOMATOKECHUP    
1 60471U 24149D   26131.22531973  .00006841  00000+0  20216-3 0  9995
2 60471  97.3796 213.2016 0002078  53.1023 307.0410 15.35264939 96497
CONNECTA IOT-1          
1 60472U 24149E   26131.44341356  .00002588  00000+0  11219-3 0  9991
2 60472  97.3762 208.3624 0003312  69.7954 290.3639 15.23252344 96209
LOPEN                   
1 60473U 24149F   26131.46217446  .00009485  00000+0  25081-3 0  9991
2 60473  97.3774 214.5750 0002224  69.7323 290.4162 15.38624297 96616
