OBJECT_NAME,OBJECT_ID,EPOCH,MEAN_MOTION,ECCENTRICITY,INCLINATION,RA_OF_ASC_NODE,ARG_OF_PERICENTER,MEAN_ANOMALY,EPHEMERIS_TYPE,CLASSIFICATION_TYPE,NORAD_CAT_ID,ELEMENT_SET_NO,REV_AT_EPOCH,BSTAR,MEAN_MOTION_DOT,MEAN_MOTION_DDOT
MONITOR-2 (RS39S),2023-091U,2026-05-11T11:34:04.990944,15.18564472,.0009986,97.5098,190.0070,235.2833,124.7461,0,U,57184,999,15838,.13907E-3,.2807E-4,0
SVYATOBOR 1 (RS60S),2023-091X,2026-05-11T11:25:46.096608,15.25980147,.00088,97.5111,195.1049,212.6596,147.4099,0,U,57187,999,15871,.20657E-3,.5238E-4,0
HORS 1,2023-091Y,2026-05-11T11:08:24.432288,15.26075081,.000827,97.5091,194.8602,212.0896,147.9840,0,U,57188,999,15871,.22101E-3,.5626E-4,0
VIZARD-METEO (RS38S),2023-091Z,2026-05-11T12:30:11.350944,15.34850697,.0007525,97.5109,200.3034,189.8888,170.2208,0,U,57189,999,15906,.2993E-3,.10042E-3,0
SITRO-AIS 6 (CHIRKIN),2023-091AC,2026-05-11T12:20:01.046400,15.25239737,.0010765,97.5090,194.3946,229.0189,131.0118,0,U,57192,999,15869,.14182E-3,.3495E-4,0
SITRO-AIS 8 (ANOKHIN),2023-091AD,2026-05-11T12:00:37.182240,15.31136304,.0009921,97.5077,196.5165,220.4996,139.5507,0,U,57193,999,15883,.27274E-3,.8136E-4,0
SITRO-AIS 7 (FARTUSHNIY),2023-091AE,2026-05-11T12:14:03.664896,15.24945808,.0010582,97.5088,194.2338,230.3142,129.7163,0,U,57194,999,15868,.13288E-3,.324E-4,0
AVION KALUGA 650,2023-091AF,2026-05-11T11:56:15.519840,15.19956837,.0009205,97.5114,191.2289,232.3534,127.6866,0,U,57195,999,15845,.16253E-3,.3429E-4,0
HORS 2,2023-091AG,2026-05-11T12:10:12.024768,15.30950119,.0007923,97.5107,198.0613,202.6357,157.4536,0,U,57196,999,15891,.26382E-3,.7818E-4,0
A-SEANSAT-PG1,2023-091AH,2026-05-11T11:17:29.417568,15.35677496,.0007304,97.5097,200.3038,198.3400,161.7581,0,U,57197,999,15907,.33634E-3,.116E-3,0
SITRO-AIS 10 (BURDAEV),2023-091AK,2026-05-11T11:40:04.160064,15.37218321,.0006892,97.5098,201.1903,191.1507,168.9586,0,U,57199,999,15912,.33774E-3,.1224E-3,0
SITRO-AIS 9 (SHCHUKIN),2023-091AM,2026-05-11T12:02:02.953248,15.36763905,.0007111,97.5095,200.9634,191.8905,168.2172,0,U,57201,999,15911,.31862E-3,.11374E-3,0
UTMN 2 (RS27S),2023-091AP,2026-05-11T11:21:27.807264,15.31140266,.0007917,97.5107,198.2094,198.2016,161.8942,0,U,57203,999,15892,.2676E-3,.7978E-4,0
SITRO-AIS 12 (SMIRENNIY),2023-091AQ,2026-05-11T10:24:39.443040,15.37047107,.0006915,97.5107,201.3388,185.9629,174.1534,0,U,57204,999,15912,.33042E-3,.11907E-3,0
SITRO-AIS 11 (SHEFFER),2023-091AU,2026-05-11T12:31:42.987648,15.37440266,.0006839,97.5105,201.6534,185.3537,174.7635,0,U,57208,999,15915,.32193E-3,.11747E-3,0
H2SAT (HEINRICH HERTZ),2023-093A,2026-05-11T07:47:16.018080,1.00275153,.0001121,0.0115,233.8586,247.1904,225.5966,0,U,57213,999,1054,0,.13E-6,0
KUZGTU 1 (RS47S),2023-091AV,2026-05-11T12:37:06.032064,15.29011188,.0010314,97.5086,195.6540,218.4971,141.5534,0,U,57217,999,15877,.26293E-3,.7341E-4,0
QIANKUN-1,2023-103B,2026-05-11T12:13:52.819104,16.07698642,.0028225,96.1639,178.8864,121.1595,239.2464,0,U,57422,999,16140,.78266E-4,.65874E-3,.35802E-5
FENGYUN 3F,2023-111A,2026-05-11T11:21:16.628832,14.19932455,.0001196,98.6863,202.1630,115.4907,244.6393,0,U,57490,999,14365,.22699E-4,.5E-7,0
HJ-2F,2023-116A,2026-05-11T12:02:40.238304,15.21796970,.0009402,97.3861,137.3749,158.6853,201.4777,0,U,57519,999,15317,.21755E-3,.4874E-4,0
XRISM,2023-137A,2026-05-11T11:50:28.750848,15.12154558,.0007668,31.0019,237.2293,313.5979,46.4023,0,U,57800,999,14730,.14622E-3,.2682E-4,0
METEOR-M2 4,2024-039A,2026-05-11T12:50:40.169760,14.22425687,.0005926,98.6990,91.2991,278.1532,81.8973,0,U,59051,999,11405,.19408E-4,-.1E-7,0
GRBBETA,2024-128C,2026-05-11T07:34:12.777024,15.06332592,.0045463,61.9910,345.6011,127.0344,233.4921,0,U,60237,999,10071,.17862E-3,.2478E-4,0
TRANSPORTER-11 OBJECT A,2024-149A,2026-05-11T11:01:58.869696,15.32308007,.0003169,97.3731,211.5213,22.4180,337.7200,0,U,60468,999,9643,.1744E-3,.5362E-4,0
WARATAH SEED-1,2024-149B,2026-05-11T11:39:22.655232,15.35019048,.0001921,97.3688,212.0536,45.8457,314.2944,0,U,60469,999,9648,.24872E-3,.8371E-4,0
PHISAT 2,2024-149C,2026-05-11T04:18:06.408576,15.30523922,.0002401,97.3757,210.6172,58.6263,301.5213,0,U,60470,999,9633,.15259E-3,.4427E-4,0
LEMUR-2-TOMATOKECHUP,2024-149D,2026-05-11T05:24:27.624672,15.35264939,.0002078,97.3796,213.2016,53.1023,307.0410,0,U,60471,999,9649,.20216E-3,.6841E-4,0
CONNECTA IOT-1,2024-149E,2026-05-11T10:38:30.931584,15.23252344,.0003312,97.3762,208.3624,69.7954,290.3639,0,U,60472,999,9620,.11219E-3,.2588E-4,0
LOPEN,2024-149F,2026-05-11T11:05:31.873344,15.38624297,.0002224,97.3774,214.5750,69.7323,290.4162,0,U,60473,999,9661,.25081E-3,.9485E-4,0
